{
  "type": "FeatureCollection",
  "features": [
    {
      "type": "Feature",
      "properties": {
        "norad_id": 35459,
        "name": "COSMOS 2251 DEB",
        "group": "cosmos-2251-debris",
        "lat": 19.915148653063092,
        "lon": -10.910478492425318,
        "alt_km": 757.4842017888031,
        "timestamp": "2025-12-19T06:59:44.302906+00:00",
        "meta_object_name": "COSMOS 2251 DEB",
        "meta_object_id": "1993-036ALD",
        "meta_epoch": "2025-12-17T19:11:00.873024",
        "meta_mean_motion": 14.37469257,
        "meta_eccentricity": 0.00161114,
        "meta_inclination": 73.8694,
        "meta_ra_of_asc_node": 177.8806,
        "meta_arg_of_pericenter": 124.2019,
        "meta_mean_anomaly": 236.0663,
        "meta_ephemeris_type": 0,
        "meta_classification_type": "U",
        "meta_norad_cat_id": 35459,
        "meta_element_set_no": 999,
        "meta_rev_at_epoch": 58434,
        "meta_bstar": 0.00020652063,
        "meta_mean_motion_dot": 5.92e-06,
        "meta_mean_motion_ddot": 0,
        "tle_line1": "1 35459U 93036ALD 25351.79931566  .00000592  00000+0  20652-3 0  9992",
        "tle_line2": "2 35459  73.8694 177.8806 0016111 124.2019 236.0663 14.37469257584349"
      },
      "geometry": {
        "type": "Point",
        "coordinates": [
          -10.910478492425318,
          19.915148653063092
        ]
      }
    },
    {
      "type": "Feature",
      "properties": {
        "norad_id": 35462,
        "name": "COSMOS 2251 DEB",
        "group": "cosmos-2251-debris",
        "lat": 30.491149216472298,
        "lon": -93.50919186577116,
        "alt_km": 803.8473915939712,
        "timestamp": "2025-12-19T06:59:44.302915+00:00",
        "meta_object_name": "COSMOS 2251 DEB",
        "meta_object_id": "1993-036ALG",
        "meta_epoch": "2025-12-15T12:08:22.276032",
        "meta_mean_motion": 14.29319782,
        "meta_eccentricity": 0.00867718,
        "meta_inclination": 74.0367,
        "meta_ra_of_asc_node": 263.6601,
        "meta_arg_of_pericenter": 298.2214,
        "meta_mean_anomaly": 61.0193,
        "meta_ephemeris_type": 0,
        "meta_classification_type": "U",
        "meta_norad_cat_id": 35462,
        "meta_element_set_no": 999,
        "meta_rev_at_epoch": 66420,
        "meta_bstar": 0.0011070348,
        "meta_mean_motion_dot": 2.91e-05,
        "meta_mean_motion_ddot": 0,
        "tle_line1": "1 35462U 93036ALG 25349.50581338  .00002910  00000+0  11070-2 0  9999",
        "tle_line2": "2 35462  74.0367 263.6601 0086771 298.2214  61.0193 14.29319782664204"
      },
      "geometry": {
        "type": "Point",
        "coordinates": [
          -93.50919186577116,
          30.491149216472298
        ]
      }
    },
    {
      "type": "Feature",
      "properties": {
        "norad_id": 35465,
        "name": "COSMOS 2251 DEB",
        "group": "cosmos-2251-debris",
        "lat": 73.04809053789931,
        "lon": -104.88034558325958,
        "alt_km": 745.1220055689982,
        "timestamp": "2025-12-19T06:59:44.302926+00:00",
        "meta_object_name": "COSMOS 2251 DEB",
        "meta_object_id": "1993-036ALK",
        "meta_epoch": "2025-12-17T13:03:02.562624",
        "meta_mean_motion": 14.44331537,
        "meta_eccentricity": 0.00642719,
        "meta_inclination": 73.9967,
        "meta_ra_of_asc_node": 188.0661,
        "meta_arg_of_pericenter": 347.2721,
        "meta_mean_anomaly": 12.6809,
        "meta_ephemeris_type": 0,
        "meta_classification_type": "U",
        "meta_norad_cat_id": 35465,
        "meta_element_set_no": 999,
        "meta_rev_at_epoch": 87311,
        "meta_bstar": 0.00028334394,
        "meta_mean_motion_dot": 9.72e-06,
        "meta_mean_motion_ddot": 0,
        "tle_line1": "1 35465U 93036ALK 25351.54377966  .00000972  00000+0  28334-3 0  9997",
        "tle_line2": "2 35465  73.9967 188.0661 0064271 347.2721  12.6809 14.44331537873113"
      },
      "geometry": {
        "type": "Point",
        "coordinates": [
          -104.88034558325958,
          73.04809053789931
        ]
      }
    },
    {
      "type": "Feature",
      "properties": {
        "norad_id": 35469,
        "name": "COSMOS 2251 DEB",
        "group": "cosmos-2251-debris",
        "lat": 46.0084315043109,
        "lon": 28.826428275490738,
        "alt_km": 746.1157138223289,
        "timestamp": "2025-12-19T06:59:44.302936+00:00",
        "meta_object_name": "COSMOS 2251 DEB",
        "meta_object_id": "1993-036ALP",
        "meta_epoch": "2025-12-17T10:03:24.635232",
        "meta_mean_motion": 14.49823782,
        "meta_eccentricity": 0.00766993,
        "meta_inclination": 74.0168,
        "meta_ra_of_asc_node": 15.0739,
        "meta_arg_of_pericenter": 169.3141,
        "meta_mean_anomaly": 190.9672,
        "meta_ephemeris_type": 0,
        "meta_classification_type": "U",
        "meta_norad_cat_id": 35469,
        "meta_element_set_no": 999,
        "meta_rev_at_epoch": 88179,
        "meta_bstar": 8.4078669e-05,
        "meta_mean_motion_dot": 3.07e-06,
        "meta_mean_motion_ddot": 0,
        "tle_line1": "1 35469U 93036ALP 25351.41903513  .00000307  00000+0  84079-4 0  9991",
        "tle_line2": "2 35469  74.0168  15.0739 0076699 169.3141 190.9672 14.49823782881797"
      },
      "geometry": {
        "type": "Point",
        "coordinates": [
          28.826428275490738,
          46.0084315043109
        ]
      }
    },
    {
      "type": "Feature",
      "properties": {
        "norad_id": 35475,
        "name": "COSMOS 2251 DEB",
        "group": "cosmos-2251-debris",
        "lat": 12.82464206155619,
        "lon": 156.65632075032485,
        "alt_km": 674.5579405771496,
        "timestamp": "2025-12-19T06:59:44.302946+00:00",
        "meta_object_name": "COSMOS 2251 DEB",
        "meta_object_id": "1993-036ALV",
        "meta_epoch": "2025-12-17T04:17:46.417344",
        "meta_mean_motion": 14.69825096,
        "meta_eccentricity": 0.00204153,
        "meta_inclination": 74.0209,
        "meta_ra_of_asc_node": 157.0129,
        "meta_arg_of_pericenter": 229.8269,
        "meta_mean_anomaly": 130.1115,
        "meta_ephemeris_type": 0,
        "meta_classification_type": "U",
        "meta_norad_cat_id": 35475,
        "meta_element_set_no": 999,
        "meta_rev_at_epoch": 65682,
        "meta_bstar": 0.0014653547,
        "meta_mean_motion_dot": 8.76e-05,
        "meta_mean_motion_ddot": 0,
        "tle_line1": "1 35475U 93036ALV 25351.17900946  .00008760  00000+0  14654-2 0  9999",
        "tle_line2": "2 35475  74.0209 157.0129 0020415 229.8269 130.1115 14.69825096656822"
      },
      "geometry": {
        "type": "Point",
        "coordinates": [
          156.65632075032485,
          12.82464206155619
        ]
      }
    },
    {
      "type": "Feature",
      "properties": {
        "norad_id": 35476,
        "name": "COSMOS 2251 DEB",
        "group": "cosmos-2251-debris",
        "lat": -0.5916685411633038,
        "lon": 47.881980250247054,
        "alt_km": 634.103053385732,
        "timestamp": "2025-12-19T06:59:44.302956+00:00",
        "meta_object_name": "COSMOS 2251 DEB",
        "meta_object_id": "1993-036ALW",
        "meta_epoch": "2025-12-18T08:47:13.725312",
        "meta_mean_motion": 14.75791495,
        "meta_eccentricity": 0.00179727,
        "meta_inclination": 73.9784,
        "meta_ra_of_asc_node": 49.8682,
        "meta_arg_of_pericenter": 28.8447,
        "meta_mean_anomaly": 96.5008,
        "meta_ephemeris_type": 0,
        "meta_classification_type": "U",
        "meta_norad_cat_id": 35476,
        "meta_element_set_no": 999,
        "meta_rev_at_epoch": 87970,
        "meta_bstar": 0.0012577424,
        "meta_mean_motion_dot": 8.619e-05,
        "meta_mean_motion_ddot": 0,
        "tle_line1": "1 35476U 93036ALW 25352.36613108  .00008619  00000+0  12577-2 0  9998",
        "tle_line2": "2 35476  73.9784  49.8682 0017972  28.8447  96.5008 14.75791495879702"
      },
      "geometry": {
        "type": "Point",
        "coordinates": [
          47.881980250247054,
          -0.5916685411633038
        ]
      }
    },
    {
      "type": "Feature",
      "properties": {
        "norad_id": 35580,
        "name": "COSMOS 2251 DEB",
        "group": "cosmos-2251-debris",
        "lat": 73.8385416451961,
        "lon": -97.67595245457393,
        "alt_km": 902.1612425668527,
        "timestamp": "2025-12-19T06:59:44.302966+00:00",
        "meta_object_name": "COSMOS 2251 DEB",
        "meta_object_id": "1993-036ALX",
        "meta_epoch": "2025-12-18T20:08:01.258944",
        "meta_mean_motion": 13.83900216,
        "meta_eccentricity": 0.02809393,
        "meta_inclination": 73.9004,
        "meta_ra_of_asc_node": 168.3514,
        "meta_arg_of_pericenter": 172.4097,
        "meta_mean_anomaly": 188.1422,
        "meta_ephemeris_type": 0,
        "meta_classification_type": "U",
        "meta_norad_cat_id": 35580,
        "meta_element_set_no": 999,
        "meta_rev_at_epoch": 62341,
        "meta_bstar": 0.0016080562,
        "meta_mean_motion_dot": 2.398e-05,
        "meta_mean_motion_ddot": 0,
        "tle_line1": "1 35580U 93036ALX 25352.83890346  .00002398  00000+0  16081-2 0  9999",
        "tle_line2": "2 35580  73.9004 168.3514 0280939 172.4097 188.1422 13.83900216623410"
      },
      "geometry": {
        "type": "Point",
        "coordinates": [
          -97.67595245457393,
          73.8385416451961
        ]
      }
    }
  ]
}